     2.100          NAVIGATION                              RINEX VERSION / TYPE
fic2rin                                 07/11/2013 00:23:41 PGM / RUN BY / DATE
                                                            END OF HEADER
12 13  7 10 23 59 44.0  .144096557051D-03  .216004991671D-11  .000000000000D+00
     .500000000000D+01  .221875000000D+01  .434089510142D-08  .130035898510D+01
    -.124797224998D-06  .450409890618D-02  .195764005184D-05  .515353262520D+04
     .345584000000D+06 -.260770320892D-07  .200319085086D+01  .502914190292D-07
     .984348415640D+00  .354375000000D+03  .312656374799D+00 -.825355807954D-08
     .696457581682D-10  .100000000000D+01  .174800000000D+04  .000000000000D+00
     .240000000000D+01  .000000000000D+00 -.121071934700D-07  .500000000000D+01
     .344706000000D+06  .400000000000D+01
